ONEWEB-0027             
1 45432U 20020J   24106.15310244  .00000125  00000+0  28799-3 0  9990
2 45432  87.9216 163.6655 0002516  99.2096 260.9321 13.17651400201929
ONEWEB-0064             
1 45433U 20020K   24105.69885459 -.00000423  00000+0 -12300-2 0  9997
2 45433  87.9029 178.8873 0002232 107.4803 252.6569 13.11418588198687
ONEWEB-0018             
1 45434U 20020L   24106.18911592  .00000595  00000+0  16421-2 0  9997
2 45434  87.9025 178.7831 0001886  99.1368 260.9973 13.11416075198707
ONEWEB-0083             
1 45435U 20020M   24105.71997260  .00000406  00000+0  11107-2 0  9999
2 45435  87.9027 178.8557 0002073 100.0814 260.0548 13.11417427198670
ONEWEB-0095             
1 45436U 20020N   24105.71199902 -.00001316  00000+0 -37513-2 0  9999
2 45436  87.9027 178.8940 0002331  91.9323 268.2071 13.11408199198674
ONEWEB-0092             
1 45437U 20020P   24106.21344845 -.00000091  00000+0 -29128-3 0  9997
2 45437  87.9024 178.7755 0002241  92.4990 267.6394 13.11413594198857
ONEWEB-0085             
1 45438U 20020Q   24106.17123268 -.00000114  00000+0 -35635-3 0  9993
2 45438  87.9028 178.7902 0001940 102.6366 257.4979 13.11417964198741
ONEWEB-0096             
1 45439U 20020R   24105.72159371  .00000484  00000+0  13299-2 0  9997
2 45439  87.9027 178.8505 0001744 102.2590 257.8733 13.11418442198663
